{
    "links": {
        "self": "http://www.neowsapp.com/rest/v1/neo/3795101?api_key=iIulBulltgU6a56xZRHN4H3l9WmuAYTsLGpBGhQ2"
    },
    "id": "3795101",
    "neo_reference_id": "3795101",
    "name": "(2017 YZ5)",
    "designation": "2017 YZ5",
    "nasa_jpl_url": "http://ssd.jpl.nasa.gov/sbdb.cgi?sstr=3795101",
    "absolute_magnitude_h": 24.4,
    "estimated_diameter": {
        "kilometers": {
            "estimated_diameter_min": 0.0350392641,
            "estimated_diameter_max": 0.0783501764
        },
        "meters": {
            "estimated_diameter_min": 35.0392641108,
            "estimated_diameter_max": 78.3501764334
        },
        "miles": {
            "estimated_diameter_min": 0.0217723826,
            "estimated_diameter_max": 0.0486845275
        },
        "feet": {
            "estimated_diameter_min": 114.9582192654,
            "estimated_diameter_max": 257.0543928497
        }
    },
    "is_potentially_hazardous_asteroid": false,
    "close_approach_data": [
        {
            "close_approach_date": "2010-12-25",
            "close_approach_date_full": "2010-Dec-25 15:10",
            "epoch_date_close_approach": 1293289800000,
            "relative_velocity": {
                "kilometers_per_second": "18.774359855",
                "kilometers_per_hour": "67587.6954779795",
                "miles_per_hour": "41996.3655596367"
            },
            "miss_distance": {
                "astronomical": "0.4709085897",
                "lunar": "183.1834413933",
                "kilometers": "70446921.983823939",
                "miles": "43773687.5078867982"
            },
            "orbiting_body": "Earth"
        },
        {
            "close_approach_date": "2017-08-04",
            "close_approach_date_full": "2017-Aug-04 00:26",
            "epoch_date_close_approach": 1501806360000,
            "relative_velocity": {
                "kilometers_per_second": "11.6526835481",
                "kilometers_per_hour": "41949.6607731794",
                "miles_per_hour": "26065.887828757"
            },
            "miss_distance": {
                "astronomical": "0.3937661311",
                "lunar": "153.1750249979",
                "kilometers": "58906574.490700757",
                "miles": "36602848.0919021666"
            },
            "orbiting_body": "Earth"
        },
        {
            "close_approach_date": "2017-12-21",
            "close_approach_date_full": "2017-Dec-21 08:52",
            "epoch_date_close_approach": 1513846320000,
            "relative_velocity": {
                "kilometers_per_second": "11.7436255759",
                "kilometers_per_hour": "42277.0520733541",
                "miles_per_hour": "26269.3160508016"
            },
            "miss_distance": {
                "astronomical": "0.1090284386",
                "lunar": "42.4120626154",
                "kilometers": "16310422.183985782",
                "miles": "10134826.3869845116"
            },
            "orbiting_body": "Earth"
        }
    ],
    "orbital_data": {
        "orbit_id": "3",
        "orbit_determination_date": "2018-01-17 06:51:40",
        "first_observation_date": "2017-12-26",
        "last_observation_date": "2018-01-16",
        "data_arc_in_days": 21,
        "observations_used": 37,
        "orbit_uncertainty": "8",
        "minimum_orbit_intersection": ".109019",
        "jupiter_tisserand_invariant": "5.085",
        "epoch_osculation": "2458116.5",
        "eccentricity": ".1526208841851953",
        "semi_major_axis": "1.242530530022883",
        "inclination": "21.7644543074517",
        "ascending_node_longitude": "273.382940645785",
        "orbital_period": "505.8934187610635",
        "perihelion_distance": "1.052894421903691",
        "perihelion_argument": "134.3009771955561",
        "aphelion_distance": "1.432166638142075",
        "perihelion_time": "2458065.651579770230",
        "mean_anomaly": "36.18436335374223",
        "mean_motion": ".7116123409583831",
        "equinox": "J2000",
        "orbit_class": {
            "orbit_class_type": "AMO",
            "orbit_class_description": "Near-Earth asteroid orbits similar to that of 1221 Amor",
            "orbit_class_range": "1.017 AU < q (perihelion) < 1.3 AU"
        }
    },
    "is_sentry_object": false
}